IRIDIUM 150             
1 43257U 18030J   24018.80897391 -.00000016  00000+0 -12662-4 0  9992
2 43257  86.3976 298.3995 0001620  76.2477 283.8899 14.34215405303977
IRIDIUM 143             
1 43258U 18030K   24018.85971200  .00000185  00000+0  59165-4 0  9994
2 43258  86.3980 298.4359 0001778  87.4468 272.6931 14.34217667303915
IRIDIUM 161             
1 43478U 18047C   24018.73664534  .00000719  00000+0  20756-3 0  9998
2 43478  86.4481  96.4688 0002194  93.0999 267.0453 14.43307947298148
IRIDIUM 152             
1 43479U 18047D   24018.76266444  .00000065  00000+0  16251-4 0  9990
2 43479  86.3955  96.3173 0002021 100.8467 259.2956 14.34215989296297
IRIDIUM 147             
1 43480U 18047E   24018.76900675  .00000125  00000+0  37618-4 0  9990
2 43480  86.3957  96.3039 0002266  90.8408 269.3047 14.34217741296297
IRIDIUM 110             
1 43481U 18047F   24018.70558213  .00000023  00000+0  11144-5 0  9996
2 43481  86.3961  96.4001 0002326  83.4768 276.6692 14.34216609296274
IRIDIUM 162             
1 43482U 18047G   24018.73040540  .00000715  00000+0  20642-3 0  9998
2 43482  86.4480  96.3736 0002181  92.8933 267.2517 14.43306225298136
IRIDIUM 160             
1 43569U 18061A   24018.86072294  .00000033  00000+0  48949-5 0  9990
2 43569  86.3939  64.6827 0002556  99.5583 260.5902 14.34216400287193
